{"type": "FeatureCollection", "features": [ {"type": "Feature", "properties": {"norad_id": 37216, "name": "COSMO-SKYMED 4", "group": "resource", "lat": -27.696322815144065, "lon": -175.90070334624014, "alt_km": 628.6570958998946, "timestamp": "2025-12-24T18:55:55.713966+00:00", "meta": {"OBJECT_NAME": "COSMO-SKYMED 4", "OBJECT_ID": "2010-060A", "EPOCH": "2025-12-24T07:42:58.948704", "MEAN_MOTION": 14.82156507, "ECCENTRICITY": 0.00013483, "INCLINATION": 97.8802, "RA_OF_ASC_NODE": 179.4699, "ARG_OF_PERICENTER": 82.6993, "MEAN_ANOMALY": 277.4373, "EPHEMERIS_TYPE": 0, "CLASSIFICATION_TYPE": "U", "NORAD_CAT_ID": 37216, "ELEMENT_SET_NO": 999, "REV_AT_EPOCH": 81866, "BSTAR": 4.0618596e-05, "MEAN_MOTION_DOT": 2.71e-06, "MEAN_MOTION_DDOT": 0}, "tle": {"line1": "1 37216U 10060A   25358.32151561  .00000271  00000+0  40619-4 0  9996", "line2": "2 37216  97.8802 179.4699 0001348  82.6993 277.4373 14.82156507818664"}}, "geometry": {"type": "Point", "coordinates": [-175.90070334624014, -27.696322815144065]}}, {"type": "Feature", "properties": {"norad_id": 37387, "name": "RESOURCESAT-2", "group": "resource", "lat": -14.924442282281074, "lon": -120.0768378017428, "alt_km": 828.7782675484723, "timestamp": "2025-12-24T18:55:55.713976+00:00", "meta": {"OBJECT_NAME": "RESOURCESAT-2", "OBJECT_ID": "2011-015A", "EPOCH": "2025-12-24T04:30:15.477696", "MEAN_MOTION": 14.21601622, "ECCENTRICITY": 0.00058583, "INCLINATION": 98.7861, "RA_OF_ASC_NODE": 61.6874, "ARG_OF_PERICENTER": 11.3661, "MEAN_ANOMALY": 348.7648, "EPHEMERIS_TYPE": 0, "CLASSIFICATION_TYPE": "U", "NORAD_CAT_ID": 37387, "ELEMENT_SET_NO": 999, "REV_AT_EPOCH": 76131, "BSTAR": 8.4671181e-05, "MEAN_MOTION_DOT": 1.41e-06, "MEAN_MOTION_DDOT": 0}, "tle": {"line1": "1 37387U 11015A   25358.18767914  .00000141  00000+0  84671-4 0  9997", "line2": "2 37387  98.7861  61.6874 0005858  11.3661 348.7648 14.21601622761318"}}, "geometry": {"type": "Point", "coordinates": [-120.0768378017428, -14.924442282281074]}}, {"type": "Feature", "properties": {"norad_id": 37781, "name": "HAIYANG-2A", "group": "resource", "lat": -10.819988941438382, "lon": 177.73540131299313, "alt_km": 972.8135384995476, "timestamp": "2025-12-24T18:55:55.713987+00:00", "meta": {"OBJECT_NAME": "HAIYANG-2A", "OBJECT_ID": "2011-043A", "EPOCH": "2025-12-24T07:33:37.666656", "MEAN_MOTION": 13.7883712, "ECCENTRICITY": 0.00016109, "INCLINATION": 99.3375, "RA_OF_ASC_NODE": 359.0709, "ARG_OF_PERICENTER": 67.9487, "MEAN_ANOMALY": 292.1836, "EPHEMERIS_TYPE": 0, "CLASSIFICATION_TYPE": "U", "NORAD_CAT_ID": 37781, "ELEMENT_SET_NO": 999, "REV_AT_EPOCH": 72258, "BSTAR": 0.00034523547, "MEAN_MOTION_DOT": 3.07e-06, "MEAN_MOTION_DDOT": 0}, "tle": {"line1": "1 37781U 11043A   25358.31501929  .00000307  00000+0  34524-3 0  9998", "line2": "2 37781  99.3375 359.0709 0001610  67.9487 292.1836 13.78837120722581"}}, "geometry": {"type": "Point", "coordinates": [177.73540131299313, -10.819988941438382]}}, {"type": "Feature", "properties": {"norad_id": 37791, "name": "RASAT", "group": "resource", "lat": -25.059392535197276, "lon": -95.93347328223486, "alt_km": 688.318121054449, "timestamp": "2025-12-24T18:55:55.713998+00:00", "meta": {"OBJECT_NAME": "RASAT", "OBJECT_ID": "2011-044D", "EPOCH": "2025-12-24T06:58:05.926368", "MEAN_MOTION": 14.67923783, "ECCENTRICITY": 0.00213302, "INCLINATION": 98.0646, "RA_OF_ASC_NODE": 87.3767, "ARG_OF_PERICENTER": 30.1749, "MEAN_ANOMALY": 62.3056, "EPHEMERIS_TYPE": 0, "CLASSIFICATION_TYPE": "U", "NORAD_CAT_ID": 37791, "ELEMENT_SET_NO": 999, "REV_AT_EPOCH": 76752, "BSTAR": 7.4225977e-05, "MEAN_MOTION_DOT": 3.77e-06, "MEAN_MOTION_DDOT": 0}, "tle": {"line1": "1 37791U 11044D   25358.29034637  .00000377  00000+0  74226-4 0  9995", "line2": "2 37791  98.0646  87.3767 0021330  30.1749  62.3056 14.67923783767522"}}, "geometry": {"type": "Point", "coordinates": [-95.93347328223486, -25.059392535197276]}}, {"type": "Feature", "properties": {"norad_id": 37841, "name": "SRMSAT", "group": "resource", "lat": -16.019449013098228, "lon": -92.73729476512894, "alt_km": 861.0948364340929, "timestamp": "2025-12-24T18:55:55.714008+00:00", "meta": {"OBJECT_NAME": "SRMSAT", "OBJECT_ID": "2011-058D", "EPOCH": "2025-12-24T06:16:52.796352", "MEAN_MOTION": 14.11515202, "ECCENTRICITY": 0.00119946, "INCLINATION": 19.973, "RA_OF_ASC_NODE": 38.2189, "ARG_OF_PERICENTER": 79.525, "MEAN_ANOMALY": 349.9984, "EPHEMERIS_TYPE": 0, "CLASSIFICATION_TYPE": "U", "NORAD_CAT_ID": 37841, "ELEMENT_SET_NO": 999, "REV_AT_EPOCH": 73307, "BSTAR": 8.8145901e-05, "MEAN_MOTION_DOT": 4.27e-06, "MEAN_MOTION_DDOT": 0}, "tle": {"line1": "1 37841U 11058D   25358.26172218  .00000427  00000+0  88146-4 0  9993", "line2": "2 37841  19.9730  38.2189 0011994  79.5250 349.9984 14.11515202733075"}}, "geometry": {"type": "Point", "coordinates": [-92.73729476512894, -16.019449013098228]}}, {"type": "Feature", "properties": {"norad_id": 38012, "name": "PLEIADES 1A", "group": "resource", "lat": -44.1196080834935, "lon": 79.39040608480242, "alt_km": 704.8588753635322, "timestamp": "2025-12-24T18:55:55.714018+00:00", "meta": {"OBJECT_NAME": "PLEIADES 1A", "OBJECT_ID": "2011-076F", "EPOCH": "2025-12-24T07:57:15.276384", "MEAN_MOTION": 14.58571756, "ECCENTRICITY": 0.00010997, "INCLINATION": 98.1811, "RA_OF_ASC_NODE": 70.9209, "ARG_OF_PERICENTER": 76.3168, "MEAN_ANOMALY": 358.7065, "EPHEMERIS_TYPE": 0, "CLASSIFICATION_TYPE": "U", "NORAD_CAT_ID": 38012, "ELEMENT_SET_NO": 999, "REV_AT_EPOCH": 74650, "BSTAR": 0.0001072463, "MEAN_MOTION_DOT": 4.53e-06, "MEAN_MOTION_DDOT": 0}, "tle": {"line1": "1 38012U 11076F   25358.33142681  .00000453  00000+0  10725-3 0  9999", "line2": "2 38012  98.1811  70.9209 0001099  76.3168 358.7065 14.58571756746506"}}, "geometry": {"type": "Point", "coordinates": [79.39040608480242, -44.1196080834935]}}, {"type": "Feature", "properties": {"norad_id": 38038, "name": "ZIYUAN 1-02C (ZY 1-02C)", "group": "resource", "lat": 52.404454613556005, "lon": 53.47285553083693, "alt_km": 756.9085427347782, "timestamp": "2025-12-24T18:55:55.714029+00:00", "meta": {"OBJECT_NAME": "ZIYUAN 1-02C (ZY 1-02C)", "OBJECT_ID": "2011-079A", "EPOCH": "2025-12-24T07:24:05.586336", "MEAN_MOTION": 14.38024911, "ECCENTRICITY": 0.0007568, "INCLINATION": 98.4318, "RA_OF_ASC_NODE": 64.1084, "ARG_OF_PERICENTER": 108.3567, "MEAN_ANOMALY": 339.2492, "EPHEMERIS_TYPE": 0, "CLASSIFICATION_TYPE": "U", "NORAD_CAT_ID": 38038, "ELEMENT_SET_NO": 999, "REV_AT_EPOCH": 73407, "BSTAR": 0.0002216136, "MEAN_MOTION_DOT": 6.28e-06, "MEAN_MOTION_DDOT": 0}, "tle": {"line1": "1 38038U 11079A   25358.30839799  .00000628  00000+0  22161-3 0  9991", "line2": "2 38038  98.4318  64.1084 0007568 108.3567 339.2492 14.38024911734072"}}, "geometry": {"type": "Point", "coordinates": [53.47285553083693, 52.404454613556005]}}, {"type": "Feature", "properties": {"norad_id": 38338, "name": "ARIRANG-3 (KOMPSAT-3)", "group": "resource", "lat": -10.382867377728534, "lon": -44.99092467322797, "alt_km": 689.8594487793061, "timestamp": "2025-12-24T18:55:55.714039+00:00", "meta": {"OBJECT_NAME": "ARIRANG-3 (KOMPSAT-3)", "OBJECT_ID": "2012-025B", "EPOCH": "2025-12-24T07:28:47.845632", "MEAN_MOTION": 14.61727151, "ECCENTRICITY": 0.00047247, "INCLINATION": 98.3339, "RA_OF_ASC_NODE": 312.9892, "ARG_OF_PERICENTER": 297.2951, "MEAN_ANOMALY": 62.7768, "EPHEMERIS_TYPE": 0, "CLASSIFICATION_TYPE": "U", "NORAD_CAT_ID": 38338, "ELEMENT_SET_NO": 999, "REV_AT_EPOCH": 72579, "BSTAR": 0.00012358638, "MEAN_MOTION_DOT": 5.67e-06, "MEAN_MOTION_DDOT": 0}, "tle": {"line1": "1 38338U 12025B   25358.31166488  .00000567  00000+0  12359-3 0  9995", "line2": "2 38338  98.3339 312.9892 0004724 297.2951  62.7768 14.61727151725799"}}, "geometry": {"type": "Point", "coordinates": [-44.99092467322797, -10.382867377728534]}}, {"type": "Feature", "properties": {"norad_id": 38709, "name": "EXACTVIEW-1 (ADS-1B)", "group": "resource", "lat": -13.33517511656511, "lon": -74.71249996595917, "alt_km": 817.4200563015138, "timestamp": "2025-12-24T18:55:55.714050+00:00", "meta": {"OBJECT_NAME": "EXACTVIEW-1 (ADS-1B)", "OBJECT_ID": "2012-039C", "EPOCH": "2025-12-24T06:13:47.181504", "MEAN_MOTION": 14.24912368, "ECCENTRICITY": 0.00101695, "INCLINATION": 98.9637, "RA_OF_ASC_NODE": 106.8914, "ARG_OF_PERICENTER": 319.6218, "MEAN_ANOMALY": 40.4205, "EPHEMERIS_TYPE": 0, "CLASSIFICATION_TYPE": "U", "NORAD_CAT_ID": 38709, "ELEMENT_SET_NO": 999, "REV_AT_EPOCH": 69779, "BSTAR": 8.1841312e-05, "MEAN_MOTION_DOT": 1.45e-06, "MEAN_MOTION_DDOT": 0}, "tle": {"line1": "1 38709U 12039C   25358.25957386  .00000145  00000+0  81841-4 0  9995", "line2": "2 38709  98.9637 106.8914 0010169 319.6218  40.4205 14.24912368697790"}}, "geometry": {"type": "Point", "coordinates": [-74.71249996595917, -13.33517511656511]}}, {"type": "Feature", "properties": {"norad_id": 38755, "name": "SPOT 6", "group": "resource", "lat": -57.87069864983662, "lon": -129.84948306778787, "alt_km": 705.8225367897803, "timestamp": "2025-12-24T18:55:55.714059+00:00", "meta": {"OBJECT_NAME": "SPOT 6", "OBJECT_ID": "2012-047A", "EPOCH": "2025-12-24T07:57:43.667424", "MEAN_MOTION": 14.58542126, "ECCENTRICITY": 0.00012524, "INCLINATION": 98.1556, "RA_OF_ASC_NODE": 62.9019, "ARG_OF_PERICENTER": 77.8641, "MEAN_ANOMALY": 282.2698, "EPHEMERIS_TYPE": 0, "CLASSIFICATION_TYPE": "U", "NORAD_CAT_ID": 38755, "ELEMENT_SET_NO": 999, "REV_AT_EPOCH": 70756, "BSTAR": 0.00010361266, "MEAN_MOTION_DOT": 4.36e-06, "MEAN_MOTION_DDOT": 0}, "tle": {"line1": "1 38755U 12047A   25358.33175541  .00000436  00000+0  10361-3 0  9990", "line2": "2 38755  98.1556  62.9019 0001252  77.8641 282.2698 14.58542126707564"}}, "geometry": {"type": "Point", "coordinates": [-129.84948306778787, -57.87069864983662]}}]}